EPOCH,NORAD_CAT_ID,MEAN_MOTION,ECCENTRICITY,INCLINATION,RA_OF_ASC_NODE,ARG_OF_PERICENTER,MEAN_ANOMALY,MEAN_MOTION_DOT,BSTAR,TLE_LINE1,TLE_LINE2
2024-12-28 14:00:01,50803,15.61022751,0.0000724,53.2119,320.1717,91.7724,26.1982,0.00535659,0.0058575,1 50803U 22001A   24363.58334491  .00535659  00000-0  58575-2 0  9991,2 50803  53.2119 320.1717 0000724  91.7724  26.1982 15.61022751  5837
2024-12-29 04:00:00,50803,15.61634715,0.0000678,53.2118,317.3362,85.5543,73.0773,0.00578747,0.0061476,1 50803U 22001A   24364.16667824  .00578747  00000-0  61476-2 0  9994,2 50803  53.2118 317.3362 0000678  85.5543  73.0773 15.61634715166025
2024-12-29 14:00:01,50803,15.62098801,0.0000893,53.2116,315.3076,100.1507,242.6143,0.00561966,0.0058762,1 50803U 22001A   24364.58334491  .00561966  00000-0  58762-2 0  9990,2 50803  53.2116 315.3076 0000893 100.1507 242.6143 15.62098801  5899
2024-12-29 22:00:00,50803,15.62469778,0.000091,53.2117,313.6843,110.6239,307.9392,0.00556376,0.0057389,1 50803U 22001A   24364.91667824  .00556376  00000-0  57389-2 0  9999,2 50803  53.2117 313.6843 0000910 110.6239 307.9392 15.62469778  5831
2024-12-30 10:00:00,50803,15.63004315,0.0000604,53.2113,311.2496,98.9511,254.1331,0.00572211,0.005769,1 50803U 22001A   24365.41667824  .00572211  00000-0  57690-2 0  9996,2 50803  53.2113 311.2496 0000604  98.9511 254.1331 15.63004315166226
2024-12-30 14:00:01,50803,15.63191153,0.0000675,53.2117,310.4358,113.8311,97.7097,0.00547934,0.0055012,1 50803U 22001A   24365.58335648  .00547934  00000-0  55012-2 0  9990,2 50803  53.2117 310.4358 0000675 113.8311  97.7097 15.63191153  5848
2024-12-30 22:00:00,50803,15.63554041,0.0000942,53.212,308.8099,117.693,170.8866,0.00563999,0.0055716,1 50803U 22001A   24365.91667824  .00563999  00000-0  55716-2 0  9991,2 50803  53.2120 308.8099 0000942 117.6930 170.8866 15.63554041  5892
2024-12-31 12:00:00,50803,15.64195655,0.0000951,53.2119,305.9637,108.5407,226.0237,0.0053457,0.0051689,1 50803U 22001A   24366.50001157  .00534570  00000-0  51689-2 0  9996,2 50803  53.2119 305.9637 0000951 108.5407 226.0237 15.64195655166396
2024-12-31 14:00:01,50803,15.64268087,0.0000967,53.2121,305.5562,114.7989,329.3082,0.00572442,0.0054929,1 50803U 22001A   24366.58334491  .00572442  00000-0  54929-2 0  9994,2 50803  53.2121 305.5562 0000967 114.7989 329.3082 15.64268087  5884
2024-12-31 20:00:01,50803,15.64540749,0.0000971,53.212,304.3347,120.9202,291.9546,0.00587018,0.0055623,1 50803U 22001A   24366.83334491  .00587018  00000-0  55623-2 0  9999,2 50803  53.2120 304.3347 0000971 120.9202 291.9546 15.64540749  5824
2025-01-01 06:00:00,50803,15.64968532,0.0000862,53.2115,302.3008,103.45,137.9281,0.00632484,0.0058588,1 50803U 22001A   25001.25001157  .00632484  00000-0  58588-2 0  9993,2 50803  53.2115 302.3008 0000862 103.4500 137.9281 15.64968532166508
2025-01-01 06:00:00,50803,15.64968532,0.0000862,53.2115,302.3008,103.45,137.9281,0.00632484,0.0058588,1 50803U 22001A   25001.25001157  .00632484  00000-0  58588-2 0  9993,2 50803  53.2115 302.3008 0000862 103.4500 137.9281 15.64968532  5881
2025-01-02 06:00:00,50803,15.66053407,0.000109,53.2112,297.4082,112.2371,8.3014,0.00643566,0.0057021,1 50803U 22001A   25002.25001157  .00643566  00000-0  57021-2 0  9998,2 50803  53.2112 297.4082 0001090 112.2371   8.3014 15.66053407166669
2025-01-02 08:00:01,50803,15.66209432,0.0001062,53.2109,296.9998,102.7673,127.9076,0.00531855,0.0047494,1 50803U 22001A   25002.33335648  .00531855  00000-0  47494-2 0  9992,2 50803  53.2109 296.9998 0001062 102.7673 127.9076 15.66209432  5853
2025-01-02 22:00:00,50803,15.66822822,0.0001195,53.2113,294.1402,113.5213,168.6204,0.00544102,0.0047334,1 50803U 22001A   25002.91667824  .00544102  00000-0  47334-2 0  9992,2 50803  53.2113 294.1402 0001195 113.5213 168.6204 15.66822822  5944
2025-01-03 14:00:01,50803,15.67523407,0.0001007,53.211,290.8704,118.1585,327.3548,0.00589727,0.0049587,1 50803U 22001A   25003.58334491  .00589727  00000-0  49587-2 0  9991,2 50803  53.2110 290.8704 0001007 118.1585 327.3548 15.67523407  5789
2025-01-03 16:00:00,50803,15.67606364,0.0000583,53.2102,290.4606,109.9507,86.1057,0.00618543,0.0051645,1 50803U 22001A   25003.66667824  .00618543  00000-0  51645-2 0  9996,2 50803  53.2102 290.4606 0000583 109.9507  86.1057 15.67606364166885
2025-01-03 22:00:00,50803,15.67912132,0.0000749,53.2104,289.2342,93.8637,73.9759,0.0055709,0.0046298,1 50803U 22001A   25003.91667824  .00557090  00000-0  46298-2 0  9991,2 50803  53.2104 289.2342 0000749  93.8637  73.9759 15.67912132  5832
2025-01-04 04:00:00,50803,15.68154185,0.0000711,53.2103,288.0078,79.0602,60.8335,0.00637694,0.005195,1 50803U 22001A   25004.16667824  .00637694  00000-0  51950-2 0  9999,2 50803  53.2103 288.0078 0000711  79.0602  60.8335 15.68154185166965
2025-01-04 14:00:01,50803,15.68621059,0.0000751,53.2103,285.9581,96.5344,237.3256,0.00633191,0.005064,1 50803U 22001A   25004.58334491  .00633191  00000-0  50640-2 0  9999,2 50803  53.2103 285.9581 0000751  96.5344 237.3256 15.68621059  5842
2025-01-04 20:00:01,50803,15.6892891,0.0000877,53.2105,284.7289,99.0513,207.5108,0.00585981,0.0046553,1 50803U 22001A   25004.83334491  .00585981  00000-0  46553-2 0  9998,2 50803  53.2105 284.7289 0000877  99.0513 207.5108 15.68928910167065
2025-01-04 22:00:00,50803,15.69033914,0.0000904,53.2105,284.3197,94.8699,322.6509,0.00551645,0.0043825,1 50803U 22001A   25004.91667824  .00551645  00000-0  43825-2 0  9995,2 50803  53.2105 284.3197 0000904  94.8699 322.6509 15.69033914  5896
2025-01-05 14:00:01,50803,15.69746784,0.0000784,53.21,281.0379,103.3916,122.8384,0.00631396,0.0048228,1 50803U 22001A   25005.58334491  .00631396  00000-0  48228-2 0  9994,2 50803  53.2100 281.0379 0000784 103.3916 122.8384 15.69746784  5854
2025-01-05 22:00:00,50803,15.7015139,0.0000824,53.2098,279.3972,99.6239,211.6207,0.00559965,0.0042439,1 50803U 22001A   25005.91667824  .00559965  00000-0  42439-2 0  9999,2 50803  53.2098 279.3972 0000824  99.6239 211.6207 15.70151390  5901
2025-01-06 04:00:00,50803,15.70403758,0.0000754,53.2096,278.1665,87.6501,197.6616,0.00625213,0.0046511,1 50803U 22001A   25006.16667824  .00625213  00000-0  46511-2 0  9992,2 50803  53.2096 278.1665 0000754  87.6501 197.6616 15.70403758167270
2025-01-06 14:00:01,50803,15.70867374,0.0000712,53.2095,276.1096,113.8895,8.757,0.00626033,0.0045678,1 50803U 22001A   25006.58334491  .00626033  00000-0  45678-2 0  9993,2 50803  53.2095 276.1096 0000712 113.8895   8.7570 15.70867374  5794
2025-01-06 20:00:01,50803,15.71177808,0.0000791,53.2099,274.8766,109.5479,347.822,0.00569307,0.0041295,1 50803U 22001A   25006.83334491  .00569307  00000-0  41295-2 0  9992,2 50803  53.2099 274.8766 0000791 109.5479 347.8220 15.71177808167384
2025-01-06 22:00:00,50803,15.71270037,0.0000721,53.2098,274.466,103.0747,105.9322,0.00562423,0.0040673,1 50803U 22001A   25006.91667824  .00562423  00000-0  40673-2 0  9991,2 50803  53.2098 274.4660 0000721 103.0747 105.9322 15.71270037  5848
2025-01-07 12:00:00,50803,15.71904866,0.0000736,53.2098,271.585,105.7312,165.5058,0.00788903,0.0054018,1 50803U 22001A   25007.50001157  .00788903  00000-0  54018-2 0  9999,2 50803  53.2098 271.5850 0000736 105.7312 165.5058 15.71904866167481
2025-01-07 14:00:01,50803,15.72005904,0.0000865,53.2096,271.1729,110.6991,272.4066,0.00837687,0.0056775,1 50803U 22001A   25007.58334491  .00837687  00000-0  56775-2 0  9993,2 50803  53.2096 271.1729 0000865 110.6991 272.4066 15.72005904  5890
2025-01-07 22:00:00,50803,15.72536119,0.0000723,53.2094,269.527,102.3871,8.518,0.00743573,0.0049856,1 50803U 22001A   25007.91667824  .00743573  00000-0  49856-2 0  9991,2 50803  53.2094 269.5270 0000723 102.3871   8.5180 15.72536119  5902
2025-01-08 14:00:01,50803,15.73466713,0.0000843,53.2092,266.2271,116.3132,171.9926,0.00850517,0.0054106,1 50803U 22001A   25008.58334491  .00850517  00000-0  54106-2 0  9997,2 50803  53.2092 266.2271 0000843 116.3132 171.9926 15.73466713  5864
2025-01-08 22:00:00,50803,15.73992367,0.0001026,53.2095,264.5776,102.9713,274.8975,0.00760897,0.0047855,1 50803U 22001A   25008.91667824  .00760897  00000-0  47855-2 0  9997,2 50803  53.2095 264.5776 0001026 102.9713 274.8975 15.73992367  5864
2025-01-09 08:00:01,50803,15.74612335,0.0001181,53.2093,262.5121,97.9982,122.6514,0.00766726,0.0046923,1 50803U 22001A   25009.33334491  .00766726  00000-0  46923-2 0  9997,2 50803  53.2093 262.5121 0001181  97.9982 122.6514 15.74612335  5838
2025-01-09 08:00:01,50803,15.74612335,0.0001181,53.2093,262.5121,97.9982,122.6514,0.00766726,0.0046923,1 50803U 22001A   25009.33334491  .00766726  00000-0  46923-2 0  9997,2 50803  53.2093 262.5121 0001181  97.9982 122.6514 15.74612335167770
2025-01-09 22:00:00,50803,15.75446335,0.0000867,53.209,259.618,106.4978,183.6219,0.00797521,0.00469,1 50803U 22001A   25009.91667824  .00797521  00000-0  46900-2 0  9992,2 50803  53.2090 259.6180 0000867 106.4978 183.6219 15.75446335  5675
2025-01-10 12:00:02,50803,15.76286901,0.0001089,53.2087,256.718,114.6603,246.7864,0.00831428,0.0046945,1 50803U 22001A   25010.50002315  .00831428  00000-0  46945-2 0  9991,2 50803  53.2087 256.7180 0001089 114.6603 246.7864 15.76286901167962
2025-01-10 14:00:01,50803,15.76409589,0.0001064,53.2086,256.3034,119.662,354.8999,0.00839169,0.0047084,1 50803U 22001A   25010.58334491  .00839169  00000-0  47084-2 0  9997,2 50803  53.2086 256.3034 0001064 119.6620 354.8999 15.76409589  5771
2025-01-10 22:00:00,50803,15.76896018,0.0000555,53.2088,254.647,108.3422,99.3192,0.00882912,0.004823,1 50803U 22001A   25010.91667824  .00882912  00000-0  48230-2 0  9991,2 50803  53.2088 254.6470 0000555 108.3422  99.3192 15.76896018  5837
2025-01-11 14:00:01,50803,15.78112279,0.0001041,53.2084,251.3251,118.0055,277.771,0.01152527,0.005898,1 50803U 22001A   25011.58334491  .01152527  00000-0  58980-2 0  9992,2 50803  53.2084 251.3251 0001041 118.0055 277.7710 15.78112279  5936
